{"type": "FeatureCollection", "features": [ {"type": "Feature", "properties": {"norad_id": 66376, "name": "SHIYAN-32 01", "group": "last-30-days", "lat": 42.42565734272444, "lon": -4.707204613430222, "alt_km": 436.229058367011, "timestamp": "2025-12-04T03:47:53.334680+00:00", "meta": {"OBJECT_NAME": "SHIYAN-32 01", "OBJECT_ID": "2025-255A", "EPOCH": "2025-12-03T16:23:04.723584", "MEAN_MOTION": 15.42297685, "ECCENTRICITY": 0.0013423, "INCLINATION": 52.9966, "RA_OF_ASC_NODE": 221.1254, "ARG_OF_PERICENTER": 14.1628, "MEAN_ANOMALY": 345.9749, "EPHEMERIS_TYPE": 0, "CLASSIFICATION_TYPE": "U", "NORAD_CAT_ID": 66376, "ELEMENT_SET_NO": 999, "REV_AT_EPOCH": 395, "BSTAR": 0.00064685, "MEAN_MOTION_DOT": 0.00028053, "MEAN_MOTION_DDOT": 0}, "tle": {"line1": "1 66376U 25255A   25337.68269356  .00028053  00000+0  64685-3 0  9991", "line2": "2 66376  52.9966 221.1254 0013423  14.1628 345.9749 15.42297685  3956"}}, "geometry": {"type": "Point", "coordinates": [-4.707204613430222, 42.42565734272444]}}, {"type": "Feature", "properties": {"norad_id": 66377, "name": "CZ-11 DEB", "group": "last-30-days", "lat": -9.30123073336658, "lon": 45.82306930845736, "alt_km": 446.9886556199226, "timestamp": "2025-12-04T03:47:53.334690+00:00", "meta": {"OBJECT_NAME": "CZ-11 DEB", "OBJECT_ID": "2025-255B", "EPOCH": "2025-12-03T11:25:56.511264", "MEAN_MOTION": 15.43539883, "ECCENTRICITY": 0.0013947, "INCLINATION": 52.9966, "RA_OF_ASC_NODE": 221.9735, "ARG_OF_PERICENTER": 11.151, "MEAN_ANOMALY": 348.9801, "EPHEMERIS_TYPE": 0, "CLASSIFICATION_TYPE": "U", "NORAD_CAT_ID": 66377, "ELEMENT_SET_NO": 999, "REV_AT_EPOCH": 378, "BSTAR": 0.00098972, "MEAN_MOTION_DOT": 0.00045113, "MEAN_MOTION_DDOT": 0}, "tle": {"line1": "1 66377U 25255B   25337.47634851  .00045113  00000+0  98972-3 0  9997", "line2": "2 66377  52.9966 221.9735 0013947  11.1510 348.9801 15.43539883  3780"}}, "geometry": {"type": "Point", "coordinates": [45.82306930845736, -9.30123073336658]}}, {"type": "Feature", "properties": {"norad_id": 66378, "name": "SHIYAN-32 02", "group": "last-30-days", "lat": -32.00581419814072, "lon": 66.79431301449463, "alt_km": 445.02252518133537, "timestamp": "2025-12-04T03:47:53.334701+00:00", "meta": {"OBJECT_NAME": "SHIYAN-32 02", "OBJECT_ID": "2025-255C", "EPOCH": "2025-12-03T17:31:21.847872", "MEAN_MOTION": 15.4415973, "ECCENTRICITY": 0.0012472, "INCLINATION": 52.9964, "RA_OF_ASC_NODE": 220.7104, "ARG_OF_PERICENTER": 11.3386, "MEAN_ANOMALY": 348.7897, "EPHEMERIS_TYPE": 0, "CLASSIFICATION_TYPE": "U", "NORAD_CAT_ID": 66378, "ELEMENT_SET_NO": 999, "REV_AT_EPOCH": 382, "BSTAR": 0.00168, "MEAN_MOTION_DOT": 0.00078798, "MEAN_MOTION_DDOT": 0}, "tle": {"line1": "1 66378U 25255C   25337.73011398  .00078798  00000+0  16800-2 0  9996", "line2": "2 66378  52.9964 220.7104 0012472  11.3386 348.7897 15.44159730  3829"}}, "geometry": {"type": "Point", "coordinates": [66.79431301449463, -32.00581419814072]}}, {"type": "Feature", "properties": {"norad_id": 66379, "name": "SHIYAN-32 03", "group": "last-30-days", "lat": 19.81721899231938, "lon": 23.032860442194014, "alt_km": 444.03846680094375, "timestamp": "2025-12-04T03:47:53.334713+00:00", "meta": {"OBJECT_NAME": "SHIYAN-32 03", "OBJECT_ID": "2025-255D", "EPOCH": "2025-12-03T16:14:48.295968", "MEAN_MOTION": 15.42648161, "ECCENTRICITY": 0.0015455, "INCLINATION": 52.9971, "RA_OF_ASC_NODE": 221.0904, "ARG_OF_PERICENTER": 15.1413, "MEAN_ANOMALY": 345.0051, "EPHEMERIS_TYPE": 0, "CLASSIFICATION_TYPE": "U", "NORAD_CAT_ID": 66379, "ELEMENT_SET_NO": 999, "REV_AT_EPOCH": 383, "BSTAR": 0.00057662, "MEAN_MOTION_DOT": 0.00025277, "MEAN_MOTION_DDOT": 0}, "tle": {"line1": "1 66379U 25255D   25337.67694787  .00025277  00000+0  57662-3 0  9995", "line2": "2 66379  52.9971 221.0904 0015455  15.1413 345.0051 15.42648161  3839"}}, "geometry": {"type": "Point", "coordinates": [23.032860442194014, 19.81721899231938]}}, {"type": "Feature", "properties": {"norad_id": 66380, "name": "STARLINK-35139", "group": "last-30-days", "lat": 53.12737891480378, "lon": 36.74130417857444, "alt_km": 439.3440738273921, "timestamp": "2025-12-04T03:47:53.334723+00:00", "meta": {"OBJECT_NAME": "STARLINK-35139", "OBJECT_ID": "2025-257A", "EPOCH": "2025-12-03T12:00:02.998944", "MEAN_MOTION": 15.39583253, "ECCENTRICITY": 0.0001076, "INCLINATION": 53.1583, "RA_OF_ASC_NODE": 308.1921, "ARG_OF_PERICENTER": 82.1944, "MEAN_ANOMALY": 318.4914, "EPHEMERIS_TYPE": 0, "CLASSIFICATION_TYPE": "U", "NORAD_CAT_ID": 66380, "ELEMENT_SET_NO": 999, "REV_AT_EPOCH": 495, "BSTAR": 0.0008269, "MEAN_MOTION_DOT": 0.00032778, "MEAN_MOTION_DDOT": 0}, "tle": {"line1": "1 66380U 25257A   25337.50003471  .00032778  00000+0  82690-3 0  9998", "line2": "2 66380  53.1583 308.1921 0001076  82.1944 318.4914 15.39583253  4958"}}, "geometry": {"type": "Point", "coordinates": [36.74130417857444, 53.12737891480378]}}, {"type": "Feature", "properties": {"norad_id": 66381, "name": "STARLINK-35158", "group": "last-30-days", "lat": 53.046509731458634, "lon": 39.77356165735834, "alt_km": 439.16938191238023, "timestamp": "2025-12-04T03:47:53.334734+00:00", "meta": {"OBJECT_NAME": "STARLINK-35158", "OBJECT_ID": "2025-257B", "EPOCH": "2025-12-03T12:00:02.998944", "MEAN_MOTION": 15.39583402, "ECCENTRICITY": 0.0001337, "INCLINATION": 53.1582, "RA_OF_ASC_NODE": 308.188, "ARG_OF_PERICENTER": 85.231, "MEAN_ANOMALY": 317.2743, "EPHEMERIS_TYPE": 0, "CLASSIFICATION_TYPE": "U", "NORAD_CAT_ID": 66381, "ELEMENT_SET_NO": 999, "REV_AT_EPOCH": 501, "BSTAR": 0.00086664, "MEAN_MOTION_DOT": 0.0003438, "MEAN_MOTION_DDOT": 0}, "tle": {"line1": "1 66381U 25257B   25337.50003471  .00034380  00000+0  86664-3 0  9995", "line2": "2 66381  53.1582 308.1880 0001337  85.2310 317.2743 15.39583402  5014"}}, "geometry": {"type": "Point", "coordinates": [39.77356165735834, 53.046509731458634]}}, {"type": "Feature", "properties": {"norad_id": 66382, "name": "STARLINK-35639", "group": "last-30-days", "lat": 45.59180791685129, "lon": 75.09383941212477, "alt_km": 440.29641530107256, "timestamp": "2025-12-04T03:47:53.334744+00:00", "meta": {"OBJECT_NAME": "STARLINK-35639", "OBJECT_ID": "2025-257C", "EPOCH": "2025-12-03T12:00:02.998944", "MEAN_MOTION": 15.39579351, "ECCENTRICITY": 0.000128, "INCLINATION": 53.1588, "RA_OF_ASC_NODE": 308.1388, "ARG_OF_PERICENTER": 93.7574, "MEAN_ANOMALY": 332.6559, "EPHEMERIS_TYPE": 0, "CLASSIFICATION_TYPE": "U", "NORAD_CAT_ID": 66382, "ELEMENT_SET_NO": 999, "REV_AT_EPOCH": 501, "BSTAR": 0.0010246, "MEAN_MOTION_DOT": 0.00040748, "MEAN_MOTION_DDOT": 0}, "tle": {"line1": "1 66382U 25257C   25337.50003471  .00040748  00000+0  10246-2 0  9993", "line2": "2 66382  53.1588 308.1388 0001280  93.7574 332.6559 15.39579351  5011"}}, "geometry": {"type": "Point", "coordinates": [75.09383941212477, 45.59180791685129]}}, {"type": "Feature", "properties": {"norad_id": 66383, "name": "STARLINK-35690", "group": "last-30-days", "lat": 29.108598702861293, "lon": 100.31160182326249, "alt_km": 442.9544639962305, "timestamp": "2025-12-04T03:47:53.334754+00:00", "meta": {"OBJECT_NAME": "STARLINK-35690", "OBJECT_ID": "2025-257D", "EPOCH": "2025-12-03T12:00:02.998944", "MEAN_MOTION": 15.39564441, "ECCENTRICITY": 0.000146, "INCLINATION": 53.159, "RA_OF_ASC_NODE": 308.0876, "ARG_OF_PERICENTER": 101.0226, "MEAN_ANOMALY": 351.1688, "EPHEMERIS_TYPE": 0, "CLASSIFICATION_TYPE": "U", "NORAD_CAT_ID": 66383, "ELEMENT_SET_NO": 999, "REV_AT_EPOCH": 501, "BSTAR": 0.0011394, "MEAN_MOTION_DOT": 0.00045365, "MEAN_MOTION_DDOT": 0}, "tle": {"line1": "1 66383U 25257D   25337.50003471  .00045365  00000+0  11394-2 0  9999", "line2": "2 66383  53.1590 308.0876 0001460 101.0226 351.1688 15.39564441  5016"}}, "geometry": {"type": "Point", "coordinates": [100.31160182326249, 29.108598702861293]}}, {"type": "Feature", "properties": {"norad_id": 66384, "name": "STARLINK-35662", "group": "last-30-days", "lat": 27.766761073310583, "lon": 101.73245589663588, "alt_km": 443.25994398689363, "timestamp": "2025-12-04T03:47:53.334764+00:00", "meta": {"OBJECT_NAME": "STARLINK-35662", "OBJECT_ID": "2025-257E", "EPOCH": "2025-12-03T12:00:02.998944", "MEAN_MOTION": 15.39561211, "ECCENTRICITY": 0.0001452, "INCLINATION": 53.1589, "RA_OF_ASC_NODE": 308.0846, "ARG_OF_PERICENTER": 95.7977, "MEAN_ANOMALY": 358.2296, "EPHEMERIS_TYPE": 0, "CLASSIFICATION_TYPE": "U", "NORAD_CAT_ID": 66384, "ELEMENT_SET_NO": 999, "REV_AT_EPOCH": 501, "BSTAR": 0.0011957, "MEAN_MOTION_DOT": 0.00047633, "MEAN_MOTION_DDOT": 0}, "tle": {"line1": "1 66384U 25257E   25337.50003471  .00047633  00000+0  11957-2 0  9995", "line2": "2 66384  53.1589 308.0846 0001452  95.7977 358.2296 15.39561211  5010"}}, "geometry": {"type": "Point", "coordinates": [101.73245589663588, 27.766761073310583]}}, {"type": "Feature", "properties": {"norad_id": 66385, "name": "STARLINK-35659", "group": "last-30-days", "lat": 44.61952181473783, "lon": 77.31420664883395, "alt_km": 440.402063086608, "timestamp": "2025-12-04T03:47:53.334774+00:00", "meta": {"OBJECT_NAME": "STARLINK-35659", "OBJECT_ID": "2025-257F", "EPOCH": "2025-12-03T12:00:02.998944", "MEAN_MOTION": 15.39581565, "ECCENTRICITY": 0.0001319, "INCLINATION": 53.1587, "RA_OF_ASC_NODE": 308.1361, "ARG_OF_PERICENTER": 96.8871, "MEAN_ANOMALY": 331.3641, "EPHEMERIS_TYPE": 0, "CLASSIFICATION_TYPE": "U", "NORAD_CAT_ID": 66385, "ELEMENT_SET_NO": 999, "REV_AT_EPOCH": 501, "BSTAR": 0.0010254, "MEAN_MOTION_DOT": 0.00040784, "MEAN_MOTION_DDOT": 0}, "tle": {"line1": "1 66385U 25257F   25337.50003471  .00040784  00000+0  10254-2 0  9995", "line2": "2 66385  53.1587 308.1361 0001319  96.8871 331.3641 15.39581565  5019"}}, "geometry": {"type": "Point", "coordinates": [77.31420664883395, 44.61952181473783]}}]}